start=new Date('2021-10-06T00:00:00.000Z').valueOf();
sats=[{"OBJECT_ID":"2020-088BL","INCLINATION":"53.0529","OBJECT_NAME":"STARLINK-1914","ARG_OF_PERICENTER":"9.0291","SITE":"AFETR","REV_AT_EPOCH":"4859","RCS_SIZE":"LARGE","MEAN_ELEMENT_THEORY":"SGP4","LAUNCH_DATE":"2020-11-25","TLE_LINE2":"2 47180  53.0529 349.4611 0002345   9.0291 351.0768 15.71117711 48597","FILE":"3146255","BSTAR":"0.00171860000000","EPOCH":"2021-10-05T11:06:13.009248","COUNTRY_CODE":"US","ECCENTRICITY":"0.00023450","MEAN_MOTION_DOT":"0.00226341","REF_FRAME":"TEME","MEAN_ANOMALY":"351.0768","GP_ID":"186283104","SEMIMAJOR_AXIS":"6733.838","PERIAPSIS":"354.124","APOAPSIS":"357.283","CENTER_NAME":"EARTH","TLE_LINE1":"1 47180U 20088BL  21278.46265057  .00226341  00000-0  17186-2 0  9996","PERIOD":"91.654","EPHEMERIS_TYPE":"0","NORAD_CAT_ID":"47180","TIME_SYSTEM":"UTC","OBJECT_TYPE":"PAYLOAD","MEAN_MOTION":"15.71117711","RA_OF_ASC_NODE":"349.4611","CLASSIFICATION_TYPE":"U","DECAY_DATE":null,"ELEMENT_SET_NO":"999","MEAN_MOTION_DDOT":"0.0000000000000"},{"OBJECT_ID":"2020-088BM","INCLINATION":"53.0561","ARG_OF_PERICENTER":"106.1445","SITE":"AFETR","OBJECT_NAME":"STARLINK-1927","LAUNCH_DATE":"2020-11-25","TLE_LINE2":"2 47181  53.0561 337.2596 0001239 106.1445 253.9680 15.06401373 48515","FILE":"3145988","REV_AT_EPOCH":"4851","RCS_SIZE":"LARGE","MEAN_ELEMENT_THEORY":"SGP4","EPOCH":"2021-10-05T10:27:30.125376","COUNTRY_CODE":"US","ECCENTRICITY":"0.00012390","MEAN_MOTION_DOT":"0.00001682","BSTAR":"0.00013180000000","PERIAPSIS":"546.351","APOAPSIS":"548.067","CENTER_NAME":"EARTH","TLE_LINE1":"1 47181U 20088BM  21278.43576534  .00001682  00000-0  13180-3 0  9999","REF_FRAME":"TEME","MEAN_ANOMALY":"253.9680","GP_ID":"186276542","SEMIMAJOR_AXIS":"6925.344","PERIOD":"95.592","EPHEMERIS_TYPE":"0","MEAN_MOTION":"15.06401373","CLASSIFICATION_TYPE":"U","RA_OF_ASC_NODE":"337.2596","NORAD_CAT_ID":"47181","TIME_SYSTEM":"UTC","OBJECT_TYPE":"PAYLOAD","MEAN_MOTION_DDOT":"0.0000000000000","DECAY_DATE":null,"ELEMENT_SET_NO":"999"},{"REV_AT_EPOCH":"3965","RCS_SIZE":"LARGE","MEAN_ELEMENT_THEORY":"SGP4","LAUNCH_DATE":"2021-01-20","TLE_LINE2":"2 47349  53.0485 104.6554 0000859  62.1931 297.9174 15.71635936 39651","FILE":"3146344","BSTAR":"0.00297900000000","COUNTRY_CODE":"US","EPOCH":"2021-10-05T20:50:40.344000","MEAN_MOTION_DOT":"0.00410518","ECCENTRICITY":"0.00008590","INCLINATION":"53.0485","OBJECT_ID":"2021-005A","OBJECT_NAME":"STARLINK-1952","SITE":"AFETR","ARG_OF_PERICENTER":"62.1931","TIME_SYSTEM":"UTC","NORAD_CAT_ID":"47349","OBJECT_TYPE":"PAYLOAD","MEAN_MOTION":"15.71635936","CLASSIFICATION_TYPE":"U","RA_OF_ASC_NODE":"104.6554","DECAY_DATE":null,"ELEMENT_SET_NO":"999","MEAN_MOTION_DDOT":"0.0000000000000","MEAN_ANOMALY":"297.9174","REF_FRAME":"TEME","SEMIMAJOR_AXIS":"6732.358","GP_ID":"186307175","PERIAPSIS":"353.645","TLE_LINE1":"1 47349U 21005A   21278.86852250  .00410518  00000-0  29790-2 0  9999","APOAPSIS":"354.801","CENTER_NAME":"EARTH","PERIOD":"91.624","EPHEMERIS_TYPE":"0"},{"RA_OF_ASC_NODE":"115.3574","CLASSIFICATION_TYPE":"U","MEAN_MOTION":"15.06385557","OBJECT_TYPE":"PAYLOAD","NORAD_CAT_ID":"47350","TIME_SYSTEM":"UTC","MEAN_MOTION_DDOT":"0.0000000000000","ELEMENT_SET_NO":"999","DECAY_DATE":null,"CENTER_NAME":"EARTH","APOAPSIS":"548.308","TLE_LINE1":"1 47350U 21005B   21278.87256879 -.00000744  00000-0 -31087-4 0  9999","PERIAPSIS":"546.208","GP_ID":"186305923","SEMIMAJOR_AXIS":"6925.393","REF_FRAME":"TEME","MEAN_ANOMALY":"264.7014","EPHEMERIS_TYPE":"0","PERIOD":"95.593","FILE":"3146344","LAUNCH_DATE":"2021-01-20","TLE_LINE2":"2 47350  53.0552 115.3574 0001516  95.4147 264.7014 15.06385557 39506","MEAN_ELEMENT_THEORY":"SGP4","REV_AT_EPOCH":"3950","RCS_SIZE":"LARGE","ECCENTRICITY":"0.00015160","MEAN_MOTION_DOT":"-0.00000744","EPOCH":"2021-10-05T20:56:29.943456","COUNTRY_CODE":"US","BSTAR":"-0.00003108700000","OBJECT_ID":"2021-005B","INCLINATION":"53.0552","ARG_OF_PERICENTER":"95.4147","SITE":"AFETR","OBJECT_NAME":"STARLINK-2011"},{"RA_OF_ASC_NODE":"75.4694","CLASSIFICATION_TYPE":"U","MEAN_MOTION":"15.06392417","OBJECT_TYPE":"PAYLOAD","NORAD_CAT_ID":"47351","TIME_SYSTEM":"UTC","MEAN_MOTION_DDOT":"0.0000000000000","ELEMENT_SET_NO":"999","DECAY_DATE":null,"CENTER_NAME":"EARTH","APOAPSIS":"548.830","TLE_LINE1":"1 47351U 21005C   21278.83570461 -.00000877  00000-0 -39939-4 0  9993","PERIAPSIS":"545.644","GP_ID":"186305673","SEMIMAJOR_AXIS":"6925.372","REF_FRAME":"TEME","MEAN_ANOMALY":"275.7217","EPHEMERIS_TYPE":"0","PERIOD":"95.593","FILE":"3146344","TLE_LINE2":"2 47351  53.0525  75.4694 0002300  84.4034 275.7217 15.06392417 40053","LAUNCH_DATE":"2021-01-20","MEAN_ELEMENT_THEORY":"SGP4","RCS_SIZE":"LARGE","REV_AT_EPOCH":"4005","ECCENTRICITY":"0.00023000","MEAN_MOTION_DOT":"-0.00000877","EPOCH":"2021-10-05T20:03:24.878304","COUNTRY_CODE":"US","BSTAR":"-0.00003993900000","OBJECT_ID":"2021-005C","INCLINATION":"53.0525","ARG_OF_PERICENTER":"84.4034","SITE":"AFETR","OBJECT_NAME":"STARLINK-2017"},{"BSTAR":"0.00010095000000","ECCENTRICITY":"0.00021000","MEAN_MOTION_DOT":"0.00001222","EPOCH":"2021-10-05T20:29:57.826464","COUNTRY_CODE":"US","MEAN_ELEMENT_THEORY":"SGP4","REV_AT_EPOCH":"3949","RCS_SIZE":"LARGE","FILE":"3146344","TLE_LINE2":"2 47352  53.0544 115.3800 0002100  91.0430 269.0799 15.06381908 39490","LAUNCH_DATE":"2021-01-20","OBJECT_NAME":"STARLINK-2034","ARG_OF_PERICENTER":"91.0430","SITE":"AFETR","OBJECT_ID":"2021-005D","INCLINATION":"53.0544","DECAY_DATE":null,"ELEMENT_SET_NO":"999","MEAN_MOTION_DDOT":"0.0000000000000","OBJECT_TYPE":"PAYLOAD","NORAD_CAT_ID":"47352","TIME_SYSTEM":"UTC","CLASSIFICATION_TYPE":"U","RA_OF_ASC_NODE":"115.3800","MEAN_MOTION":"15.06381908","EPHEMERIS_TYPE":"0","PERIOD":"95.593","SEMIMAJOR_AXIS":"6925.404","GP_ID":"186306925","REF_FRAME":"TEME","MEAN_ANOMALY":"269.0799","APOAPSIS":"548.723","CENTER_NAME":"EARTH","TLE_LINE1":"1 47352U 21005D   21278.85414151  .00001222  00000-0  10095-3 0  9993","PERIAPSIS":"545.815"},{"MEAN_MOTION_DDOT":"0.0000000000000","DECAY_DATE":null,"ELEMENT_SET_NO":"999","MEAN_MOTION":"15.06397117","RA_OF_ASC_NODE":"60.5718","CLASSIFICATION_TYPE":"U","TIME_SYSTEM":"UTC","NORAD_CAT_ID":"47353","OBJECT_TYPE":"PAYLOAD","PERIOD":"95.592","EPHEMERIS_TYPE":"0","PERIAPSIS":"545.952","TLE_LINE1":"1 47353U 21005E   21278.80942933  .00001648  00000-0  12951-3 0  9998","CENTER_NAME":"EARTH","APOAPSIS":"548.493","MEAN_ANOMALY":"245.8717","REF_FRAME":"TEME","SEMIMAJOR_AXIS":"6925.357","GP_ID":"186306675","COUNTRY_CODE":"US","EPOCH":"2021-10-05T19:25:34.694112","MEAN_MOTION_DOT":"0.00001648","ECCENTRICITY":"0.00018350","BSTAR":"0.00012951000000","TLE_LINE2":"2 47353  53.0559  60.5718 0001835 114.2464 245.8717 15.06397117 40263","LAUNCH_DATE":"2021-01-20","FILE":"3146344","REV_AT_EPOCH":"4026","RCS_SIZE":"LARGE","MEAN_ELEMENT_THEORY":"SGP4","SITE":"AFETR","ARG_OF_PERICENTER":"114.2464","OBJECT_NAME":"STARLINK-2045","INCLINATION":"53.0559","OBJECT_ID":"2021-005E"},{"DECAY_DATE":null,"ELEMENT_SET_NO":"999","MEAN_MOTION_DDOT":"0.0000000000000","TIME_SYSTEM":"UTC","NORAD_CAT_ID":"47354","OBJECT_TYPE":"PAYLOAD","MEAN_MOTION":"15.06397034","CLASSIFICATION_TYPE":"U","RA_OF_ASC_NODE":"82.3209","PERIOD":"95.592","EPHEMERIS_TYPE":"0","MEAN_ANOMALY":"267.9312","REF_FRAME":"TEME","GP_ID":"186276311","SEMIMAJOR_AXIS":"6925.358","PERIAPSIS":"545.917","TLE_LINE1":"1 47354U 21005F   21278.42425849 -.00000069  00000-0  14266-4 0  9998","CENTER_NAME":"EARTH","APOAPSIS":"548.529","BSTAR":"0.00001426600000","COUNTRY_CODE":"US","EPOCH":"2021-10-05T10:10:55.933536","MEAN_MOTION_DOT":"-0.00000069","ECCENTRICITY":"0.00018860","REV_AT_EPOCH":"3992","RCS_SIZE":"LARGE","MEAN_ELEMENT_THEORY":"SGP4","LAUNCH_DATE":"2021-01-20","TLE_LINE2":"2 47354  53.0556  82.3209 0001886  92.1893 267.9312 15.06397034 39929","FILE":"3145988","OBJECT_NAME":"STARLINK-2046","SITE":"AFETR","ARG_OF_PERICENTER":"92.1893","INCLINATION":"53.0556","OBJECT_ID":"2021-005F"},{"OBJECT_NAME":"STARLINK-2047","ARG_OF_PERICENTER":"91.2233","SITE":"AFETR","OBJECT_ID":"2021-005G","INCLINATION":"53.0520","BSTAR":"-0.00001198000000","ECCENTRICITY":"0.00016430","MEAN_MOTION_DOT":"-0.00000460","EPOCH":"2021-10-05T10:19:31.216224","COUNTRY_CODE":"US","MEAN_ELEMENT_THEORY":"SGP4","REV_AT_EPOCH":"4079","RCS_SIZE":"LARGE","FILE":"3146249","LAUNCH_DATE":"2021-01-20","TLE_LINE2":"2 47355  53.0520  67.2890 0001643  91.2233 268.8944 15.06395002 40799","EPHEMERIS_TYPE":"0","PERIOD":"95.592","GP_ID":"186282277","SEMIMAJOR_AXIS":"6925.364","REF_FRAME":"TEME","MEAN_ANOMALY":"268.8944","APOAPSIS":"548.367","CENTER_NAME":"EARTH","TLE_LINE1":"1 47355U 21005G   21278.43022241 -.00000460  00000-0 -11980-4 0  9995","PERIAPSIS":"546.091","DECAY_DATE":null,"ELEMENT_SET_NO":"999","MEAN_MOTION_DDOT":"0.0000000000000","OBJECT_TYPE":"PAYLOAD","NORAD_CAT_ID":"47355","TIME_SYSTEM":"UTC","CLASSIFICATION_TYPE":"U","RA_OF_ASC_NODE":"67.2890","MEAN_MOTION":"15.06395002"},{"OBJECT_NAME":"STARLINK-2049","ARG_OF_PERICENTER":"88.5474","SITE":"AFETR","OBJECT_ID":"2021-005H","INCLINATION":"53.0554","BSTAR":"0.00000603760000","EPOCH":"2021-10-04T21:28:35.904000","COUNTRY_CODE":"US","ECCENTRICITY":"0.00022820","MEAN_MOTION_DOT":"-0.00000192","REV_AT_EPOCH":"3977","RCS_SIZE":"LARGE","MEAN_ELEMENT_THEORY":"SGP4","TLE_LINE2":"2 47356  53.0554  89.6962 0002282  88.5474 271.5777 15.06399994 39776","LAUNCH_DATE":"2021-01-20","FILE":"3145988","PERIOD":"95.592","EPHEMERIS_TYPE":"0","REF_FRAME":"TEME","MEAN_ANOMALY":"271.5777","SEMIMAJOR_AXIS":"6925.349","GP_ID":"186277813","PERIAPSIS":"545.633","CENTER_NAME":"EARTH","APOAPSIS":"548.794","TLE_LINE1":"1 47356U 21005H   21277.89486000 -.00000192  00000-0  60376-5 0  9997","DECAY_DATE":null,"ELEMENT_SET_NO":"999","MEAN_MOTION_DDOT":"0.0000000000000","NORAD_CAT_ID":"47356","TIME_SYSTEM":"UTC","OBJECT_TYPE":"PAYLOAD","MEAN_MOTION":"15.06399994","RA_OF_ASC_NODE":"89.6962","CLASSIFICATION_TYPE":"U"}];
